[{"OBJECT_NAME":"ONEWEB-0140","OBJECT_ID":"2020-100AE","EPOCH":"2026-03-09T20:40:17.405184","MEAN_MOTION":13.12442672,"ECCENTRICITY":0.00017198,"INCLINATION":87.9006,"RA_OF_ASC_NODE":10.3531,"ARG_OF_PERICENTER":84.2213,"MEAN_ANOMALY":275.9112,"EPHEMERIS_TYPE":0,"CLASSIFICATION_TYPE":"U","NORAD_CAT_ID":47286,"ELEMENT_SET_NO":999,"REV_AT_EPOCH":25166,"BSTAR":-0.0010584755,"MEAN_MOTION_DOT":-3.68e-6,"MEAN_MOTION_DDOT":0},{"OBJECT_NAME":"DELTA 1 DEB","OBJECT_ID":"1975-052LB","EPOCH":"2026-03-09T16:32:27.096864","MEAN_MOTION":13.27110979,"ECCENTRICITY":0.00909062,"INCLINATION":99.6693,"RA_OF_ASC_NODE":82.8398,"ARG_OF_PERICENTER":58.6017,"MEAN_ANOMALY":5.0092,"EPHEMERIS_TYPE":0,"CLASSIFICATION_TYPE":"U","NORAD_CAT_ID":26847,"ELEMENT_SET_NO":999,"REV_AT_EPOCH":39970,"BSTAR":8.7685065e-5,"MEAN_MOTION_DOT":0,"MEAN_MOTION_DDOT":0}]
